{
  "type": "FeatureCollection",
  "features": [
    {
      "type": "Feature",
      "properties": {
        "norad_id": 40794,
        "name": "COSMOS 2251 DEB",
        "group": "cosmos-2251-debris",
        "lat": 69.53042872650754,
        "lon": 157.57938613921385,
        "alt_km": 585.9747732734413,
        "timestamp": "2025-12-21T03:56:51.230702+00:00",
        "meta_object_name": "COSMOS 2251 DEB",
        "meta_object_id": "1993-036BVX",
        "meta_epoch": "2025-12-13T15:37:41.141568",
        "meta_mean_motion": 14.93159868,
        "meta_eccentricity": 0.00107848,
        "meta_inclination": 73.9763,
        "meta_ra_of_asc_node": 122.399,
        "meta_arg_of_pericenter": 261.0962,
        "meta_mean_anomaly": 116.104,
        "meta_ephemeris_type": 0,
        "meta_classification_type": "U",
        "meta_norad_cat_id": 40794,
        "meta_element_set_no": 999,
        "meta_rev_at_epoch": 61938,
        "meta_bstar": 0.0047306735,
        "meta_mean_motion_dot": 0.00049759,
        "meta_mean_motion_ddot": 0,
        "tle_line1": "1 40794U 93036BVX 25347.65117062  .00049759  00000+0  47307-2 0  9990",
        "tle_line2": "2 40794  73.9763 122.3990 0010784 261.0962 116.1040 14.93159868619387"
      },
      "geometry": {
        "type": "Point",
        "coordinates": [
          157.57938613921385,
          69.53042872650754
        ]
      }
    },
    {
      "type": "Feature",
      "properties": {
        "norad_id": 40796,
        "name": "COSMOS 2251 DEB",
        "group": "cosmos-2251-debris",
        "lat": 55.090711006425906,
        "lon": -78.73274881909215,
        "alt_km": 647.6183283517357,
        "timestamp": "2025-12-21T03:56:51.230711+00:00",
        "meta_object_name": "COSMOS 2251 DEB",
        "meta_object_id": "1993-036BVZ",
        "meta_epoch": "2025-12-18T03:16:26.396832",
        "meta_mean_motion": 14.81774084,
        "meta_eccentricity": 0.00561198,
        "meta_inclination": 74.0119,
        "meta_ra_of_asc_node": 131.5134,
        "meta_arg_of_pericenter": 267.2185,
        "meta_mean_anomaly": 268.2913,
        "meta_ephemeris_type": 0,
        "meta_classification_type": "U",
        "meta_norad_cat_id": 40796,
        "meta_element_set_no": 999,
        "meta_rev_at_epoch": 76238,
        "meta_bstar": 0.00073722049,
        "meta_mean_motion_dot": 5.947e-05,
        "meta_mean_motion_ddot": 0,
        "tle_line1": "1 40796U 93036BVZ 25352.13641663  .00005947  00000+0  73722-3 0  9992",
        "tle_line2": "2 40796  74.0119 131.5134 0056119 267.2185 268.2913 14.81774084762382"
      },
      "geometry": {
        "type": "Point",
        "coordinates": [
          -78.73274881909215,
          55.090711006425906
        ]
      }
    },
    {
      "type": "Feature",
      "properties": {
        "norad_id": 40797,
        "name": "COSMOS 2251 DEB",
        "group": "cosmos-2251-debris",
        "lat": 8.90493189390974,
        "lon": 80.34531522789827,
        "alt_km": 486.8463873922392,
        "timestamp": "2025-12-21T03:56:51.230720+00:00",
        "meta_object_name": "COSMOS 2251 DEB",
        "meta_object_id": "1993-036BWA",
        "meta_epoch": "2025-12-19T23:18:49.497408",
        "meta_mean_motion": 15.11460635,
        "meta_eccentricity": 0.0072123,
        "meta_inclination": 73.9226,
        "meta_ra_of_asc_node": 80.2397,
        "meta_arg_of_pericenter": 350.3044,
        "meta_mean_anomaly": 9.675,
        "meta_ephemeris_type": 0,
        "meta_classification_type": "U",
        "meta_norad_cat_id": 40797,
        "meta_element_set_no": 999,
        "meta_rev_at_epoch": 64753,
        "meta_bstar": 0.0004453,
        "meta_mean_motion_dot": 7.981e-05,
        "meta_mean_motion_ddot": 0,
        "tle_line1": "1 40797U 93036BWA 25353.97140622  .00007981  00000+0  44530-3 0  9990",
        "tle_line2": "2 40797  73.9226  80.2397 0072123 350.3044   9.6750 15.11460635647535"
      },
      "geometry": {
        "type": "Point",
        "coordinates": [
          80.34531522789827,
          8.90493189390974
        ]
      }
    },
    {
      "type": "Feature",
      "properties": {
        "norad_id": 40799,
        "name": "COSMOS 2251 DEB",
        "group": "cosmos-2251-debris",
        "lat": -64.92206767604547,
        "lon": 43.179364834170904,
        "alt_km": 513.1104097289899,
        "timestamp": "2025-12-21T03:56:51.230729+00:00",
        "meta_object_name": "COSMOS 2251 DEB",
        "meta_object_id": "1993-036BWC",
        "meta_epoch": "2025-12-19T23:22:48.331200",
        "meta_mean_motion": 14.96721244,
        "meta_eccentricity": 0.0119254,
        "meta_inclination": 73.9272,
        "meta_ra_of_asc_node": 83.6344,
        "meta_arg_of_pericenter": 324.0536,
        "meta_mean_anomaly": 35.2666,
        "meta_ephemeris_type": 0,
        "meta_classification_type": "U",
        "meta_norad_cat_id": 40799,
        "meta_element_set_no": 999,
        "meta_rev_at_epoch": 50085,
        "meta_bstar": 0.00020522528,
        "meta_mean_motion_dot": 2.662e-05,
        "meta_mean_motion_ddot": 0,
        "tle_line1": "1 40799U 93036BWC 25353.97417050  .00002662  00000+0  20523-3 0  9991",
        "tle_line2": "2 40799  73.9272  83.6344 0119254 324.0536  35.2666 14.96721244500850"
      },
      "geometry": {
        "type": "Point",
        "coordinates": [
          43.179364834170904,
          -64.92206767604547
        ]
      }
    },
    {
      "type": "Feature",
      "properties": {
        "norad_id": 40802,
        "name": "COSMOS 2251 DEB",
        "group": "cosmos-2251-debris",
        "lat": 57.05506456494959,
        "lon": -69.72286364751156,
        "alt_km": 648.8049937965643,
        "timestamp": "2025-12-21T03:56:51.230738+00:00",
        "meta_object_name": "COSMOS 2251 DEB",
        "meta_object_id": "1993-036BWF",
        "meta_epoch": "2025-12-20T16:01:50.949984",
        "meta_mean_motion": 14.77686845,
        "meta_eccentricity": 0.0062907,
        "meta_inclination": 74.0403,
        "meta_ra_of_asc_node": 137.4571,
        "meta_arg_of_pericenter": 234.6618,
        "meta_mean_anomaly": 124.8667,
        "meta_ephemeris_type": 0,
        "meta_classification_type": "U",
        "meta_norad_cat_id": 40802,
        "meta_element_set_no": 999,
        "meta_rev_at_epoch": 64526,
        "meta_bstar": 0.00051563,
        "meta_mean_motion_dot": 3.783e-05,
        "meta_mean_motion_ddot": 0,
        "tle_line1": "1 40802U 93036BWF 25354.66795081  .00003783  00000+0  51563-3 0  9999",
        "tle_line2": "2 40802  74.0403 137.4571 0062907 234.6618 124.8667 14.77686845645269"
      },
      "geometry": {
        "type": "Point",
        "coordinates": [
          -69.72286364751156,
          57.05506456494959
        ]
      }
    },
    {
      "type": "Feature",
      "properties": {
        "norad_id": 40803,
        "name": "COSMOS 2251 DEB",
        "group": "cosmos-2251-debris",
        "lat": -70.86952535449156,
        "lon": -88.25830452999656,
        "alt_km": 702.6756907345989,
        "timestamp": "2025-12-21T03:56:51.230747+00:00",
        "meta_object_name": "COSMOS 2251 DEB",
        "meta_object_id": "1993-036BWG",
        "meta_epoch": "2025-12-18T13:33:58.856256",
        "meta_mean_motion": 14.51832386,
        "meta_eccentricity": 0.00340447,
        "meta_inclination": 74.0153,
        "meta_ra_of_asc_node": 40.9148,
        "meta_arg_of_pericenter": 256.5349,
        "meta_mean_anomaly": 103.2017,
        "meta_ephemeris_type": 0,
        "meta_classification_type": "U",
        "meta_norad_cat_id": 40803,
        "meta_element_set_no": 999,
        "meta_rev_at_epoch": 58837,
        "meta_bstar": 0.00023751295,
        "meta_mean_motion_dot": 9.34e-06,
        "meta_mean_motion_ddot": 0,
        "tle_line1": "1 40803U 93036BWG 25352.56526454  .00000934  00000+0  23751-3 0  9996",
        "tle_line2": "2 40803  74.0153  40.9148 0034044 256.5349 103.2017 14.51832386588378"
      },
      "geometry": {
        "type": "Point",
        "coordinates": [
          -88.25830452999656,
          -70.86952535449156
        ]
      }
    },
    {
      "type": "Feature",
      "properties": {
        "norad_id": 40808,
        "name": "COSMOS 2251 DEB",
        "group": "cosmos-2251-debris",
        "lat": -64.03347068111232,
        "lon": 93.22250411593832,
        "alt_km": 679.1266818957392,
        "timestamp": "2025-12-21T03:56:51.230756+00:00",
        "meta_object_name": "COSMOS 2251 DEB",
        "meta_object_id": "1993-036BWM",
        "meta_epoch": "2025-12-18T11:05:09.828384",
        "meta_mean_motion": 14.67577712,
        "meta_eccentricity": 0.00086916,
        "meta_inclination": 74.0411,
        "meta_ra_of_asc_node": 134.4242,
        "meta_arg_of_pericenter": 170.7227,
        "meta_mean_anomaly": 247.3074,
        "meta_ephemeris_type": 0,
        "meta_classification_type": "U",
        "meta_norad_cat_id": 40808,
        "meta_element_set_no": 999,
        "meta_rev_at_epoch": 63703,
        "meta_bstar": 0.0013644705,
        "meta_mean_motion_dot": 7.729e-05,
        "meta_mean_motion_ddot": 0,
        "tle_line1": "1 40808U 93036BWM 25352.46191931  .00007729  00000+0  13645-2 0  9997",
        "tle_line2": "2 40808  74.0411 134.4242 0008691 170.7227 247.3074 14.67577712637032"
      },
      "geometry": {
        "type": "Point",
        "coordinates": [
          93.22250411593832,
          -64.03347068111232
        ]
      }
    }
  ]
}